ONEWEB-0385             
1 49311U 21090AJ  23276.57280627  .00000112  00000+0  24417-3 0  9991
2 49311  87.9159 111.0707 0001610 100.0647 260.0668 13.20772773 99434
ONEWEB-0386             
1 49312U 21090AK  23276.58964619  .00000074  00000+0  15043-3 0  9995
2 49312  87.9152 111.0792 0001784  96.2463 263.8874 13.20770888 99453
ONEWEB-0387             
1 49313U 21090AL  23276.57491806  .00000139  00000+0  31022-3 0  9995
2 49313  87.9158 111.1277 0001275  94.5480 265.5799 13.20774713100767
ONEWEB-0388             
1 49314U 21090AM  23276.59085283  .00000016  00000+0  65566-5 0  9992
2 49314  87.9225 141.5388 0001844  80.7771 279.3570 13.19725909 96153
ONEWEB-0389             
1 50469U 21132A   23276.49626321  .00000066  00000+0  13636-3 0  9999
2 50469  87.9254 202.1277 0001415  80.9676 279.1616 13.17648068 88012
ONEWEB-0390             
1 50470U 21132B   23276.49836812  .00000130  00000+0  30060-3 0  9991
2 50470  87.9258 202.1340 0001460  63.2424 296.8857 13.17653356 88013
ONEWEB-0391             
1 50471U 21132C   23276.50048948  .00000135  00000+0  31534-3 0  9991
2 50471  87.9258 202.1043 0001672  79.7342 280.3978 13.17649905 89300
ONEWEB-0392             
1 50472U 21132D   23276.53001786 -.00000044  00000+0 -14604-3 0  9994
2 50472  87.9245 202.1349 0001553  76.8745 283.2560 13.17647642 88055
